STARLINK-36300
1 68303U 26057K   26090.83335647 -.01389056  57203-3 -35790-2 0  9996
2 68303  97.2781 214.2148 0001451  89.2403 126.8435 15.95254360  2871
